[{"OBJECT_NAME":"STARLINK-33981","OBJECT_ID":"2025-094AA","EPOCH":"2026-03-09T16:55:19.663680","MEAN_MOTION":14.98341865,"ECCENTRICITY":0.0002901,"INCLINATION":70.0026,"RA_OF_ASC_NODE":234.4853,"ARG_OF_PERICENTER":262.0511,"MEAN_ANOMALY":98.0319,"EPHEMERIS_TYPE":0,"CLASSIFICATION_TYPE":"U","NORAD_CAT_ID":63888,"ELEMENT_SET_NO":999,"REV_AT_EPOCH":4720,"BSTAR":0.00056996357,"MEAN_MOTION_DOT":6.716e-5,"MEAN_MOTION_DDOT":0},{"OBJECT_NAME":"ELECTRON KICK STAGE R\/B","OBJECT_ID":"2025-229C","EPOCH":"2026-03-09T11:01:34.584384","MEAN_MOTION":15.04670102,"ECCENTRICITY":0.00392514,"INCLINATION":41.9818,"RA_OF_ASC_NODE":119.4948,"ARG_OF_PERICENTER":118.9737,"MEAN_ANOMALY":241.5033,"EPHEMERIS_TYPE":0,"CLASSIFICATION_TYPE":"U","NORAD_CAT_ID":65973,"ELEMENT_SET_NO":999,"REV_AT_EPOCH":2194,"BSTAR":0.00045211532,"MEAN_MOTION_DOT":6.384e-5,"MEAN_MOTION_DDOT":0}]
